[
    {
        "Altitude(m)": 612513.924312458,
        "Argument of Periapsis(deg)": 0.0,
        "Eccentricity": 0.0,
        "Inclination(deg)": 60.0,
        "Latitude(deg)": -28.135939648309776,
        "Longitude(deg)": 12.913172978396963,
        "Mean Anomaly(deg)": -147.27269999999996,
        "RAAN(deg)": 275.0,
        "Satellite Name": "Test1 1223",
        "Satellite Number": 1223,
        "Semi-Major Axis(m)": 6980739.136638005,
        "Time(s)": 0
    },
    {
        "Altitude(m)": 612708.2919872153,
        "Argument of Periapsis(deg)": 0.00010418945913296404,
        "Eccentricity": 0.0,
        "Inclination(deg)": 60.0,
        "Latitude(deg)": -28.64767812626483,
        "Longitude(deg)": 13.270404527830571,
        "Mean Anomaly(deg)": -146.65259385453817,
        "RAAN(deg)": 274.9995799508602,
        "Satellite Name": "Test1 1223",
        "Satellite Number": 1223,
        "Semi-Major Axis(m)": 6980739.136638005,
        "Time(s)": 10
    }
]